IRIDIUM 33 DEB          
1 35620U 97051QS  26059.76607762  .00007934  00000+0  22480-2 0  9991
2 35620  86.3903 184.5043 0131255   0.7677 359.3698 14.40458510610884
IRIDIUM 33 DEB          
1 35622U 97051QU  26061.93022610  .00049360  00000+0  27413-2 0  9998
2 35622  86.1940 223.7568 0006077 326.6449 187.2415 15.13498018885699
IRIDIUM 33 DEB          
1 35628U 97051RA  26058.04181152  .00008239  00000+0  13981-2 0  9994
2 35628  86.3598 335.0172 0014295  68.7722 291.5019 14.69039807875665
IRIDIUM 33 DEB          
1 35631U 97051RD  26061.26497154  .00001664  00000+0  44601-3 0  9997
2 35631  86.3721 346.7362 0015242 210.5406 311.9361 14.47608505883474
IRIDIUM 33 DEB          
1 35680U 97051RJ  26061.52407652  .00010457  00000+0  41640-2 0  9993
2 35680  86.1055 346.1701 0154667  25.3912 152.7968 14.22198482618343
IRIDIUM 33 DEB          
1 35744U 97051RX  26060.60700919  .00006408  00000+0  10079-2 0  9997
2 35744  86.3261 289.7694 0019083 290.1258  69.7905 14.72288041884917
IRIDIUM 33 DEB          
1 35797U 97051SF  26060.39965620  .00013868  00000+0  16026-2 0  9999
2 35797  86.3336 293.7608 0009151 244.0916 115.9366 14.85465697885073
IRIDIUM 33 DEB          
1 35806U 97051SQ  26061.07214314  .00005839  00000+0  12549-2 0  9998
2 35806  86.3497 345.6804 0013102 150.5980 209.5969 14.58379482874804
IRIDIUM 33 DEB          
1 35809U 97051ST  26061.41166348  .00010902  00000+0  15133-2 0  9991
2 35809  86.3258 299.0145 0011940 341.4382  18.6400 14.77775546879836
IRIDIUM 33 DEB          
1 35846U 97051SW  26060.87153367  .00002531  00000+0  74172-3 0  9996
2 35846  86.3767  25.0475 0015422 276.4022  83.5423 14.43516052724701
IRIDIUM 33 DEB          
1 35848U 97051SY  26061.05566769  .00014702  00000+0  18928-2 0  9992
2 35848  86.3928 340.3975 0005604 311.4082  48.6658 14.80997389678636
IRIDIUM 33 DEB          
1 35850U 97051TA  26059.96977532  .00011591  00000+0  14879-2 0  9990
2 35850  86.3498 308.6050 0007883 300.3336  59.7105 14.81111763725146
IRIDIUM 33 DEB          
1 35915U 97051TY  26061.96261511  .00013559  00000+0  16465-2 0  9997
2 35915  86.3433 306.2320 0009044 286.7667  73.2563 14.83420299 92747
IRIDIUM 33 DEB          
1 35918U 97051UB  26057.28688838  .00004159  00000+0  10220-2 0  9994
2 35918  86.3995  43.3510 0023543 281.1674 144.2213 14.51967703863030
IRIDIUM 33 DEB          
1 35929U 97051UN  26058.33159666  .00038210  00000+0  24082-2 0  9991
2 35929  86.3417 276.1631 0015437 101.2586 259.0387 15.08878455889323
IRIDIUM 33 DEB          
1 36011U 97051US  26061.56744593  .00002048  00000+0  62224-3 0  9993
2 36011  86.3456   1.1330 0017606 325.5602 159.5107 14.41643676656902
